# From MPC106342
C/1995 O1 (Hale-Bopp),e,89.2220,282.8706,130.4225,177.2796,0.0004176,0.99496984,0.0000,03/29.6836/1997,2000,g -2.0,4.0
# From NK 1615
P/1996 R2 (Lagerkvist),e,2.6009,40.0101,333.3691,3.774728,0.1343927,0.31450237,162.0060,06/02.0/2022,2000,g 11.5,4.0
# From MPC 75703
P/1998 VS24 (LINEAR),e,5.0266,159.0405,244.6043,4.526223,0.1023529,0.24290486,163.2235,06/02.0/2022,2000,g 13.0,2.0
# From NK 731
P/1999 RO28 (LONEOS),e,7.5665,137.8804,231.2800,3.426578,0.1553864,0.67247919,166.4642,06/02.0/2022,2000,g 20.0,2.0
# From MPC 75704
P/1999 XN120 (Catalina),e,5.0297,285.2962,161.7183,4.179073,0.1153677,0.21028920,209.9429,06/02.0/2022,2000,g 13.5,2.0
# From NK 744
P/2000 R2 (LINEAR),e,11.6874,160.2853,176.5762,3.467391,0.1526511,0.53153427,164.8983,06/02.0/2022,2000,g 18.0,4.0
# From MPC 43019
P/2001 H5 (NEAT),e,8.3670,328.6841,224.7766,6.096474,0.0654766,0.59821493,158.5576,06/02.0/2022,2000,g 12.0,4.0
# From MPC 75704
P/2001 Q6 (NEAT),e,56.9115,22.1815,42.9318,7.957151,0.0439104,0.82324496,332.0521,06/02.0/2022,2000,g 13.5,4.0
# From MPC 47727
P/2002 EJ57 (LINEAR),e,4.9768,330.3173,167.3088,6.465497,0.0599517,0.59228649,86.6649,06/02.0/2022,2000,g 12.5,4.0
# From MPC109588
P/2002 T6 (NEAT-LINEAR),e,10.8477,206.1028,219.6123,7.714532,0.0459981,0.56187784,324.1439,06/02.0/2022,2000,g 10.5,4.0
# From MPC 75007
C/2002 VQ94 (LINEAR),e,70.6713,35.1195,100.0286,184.3446,0.0003938,0.96302876,2.3502,06/02.0/2022,2000,g  9.5,2.0
# From MPC 50354
P/2003 F2 (NEAT),e,11.6093,359.0026,192.2509,6.502840,0.0594360,0.54160722,55.4288,06/02.0/2022,2000,g 16.5,2.0
# From MPC 50139
P/2003 QX29 (NEAT),e,11.3920,264.5303,37.6205,8.019227,0.0434016,0.47274467,309.6024,06/02.0/2022,2000,g  8.5,4.0
# From MPC105235
P/2003 T12 (SOHO),e,11.0224,174.5856,219.7448,2.585636,0.2370571,0.77003495,179.1912,06/02.0/2022,2000,g 17.0,4.0
# From MPC 82312
P/2004 A1 (LONEOS),e,10.5517,124.8557,21.1402,7.968311,0.0438182,0.30974176,285.8649,06/02.0/2022,2000,g  6.5,4.0
# From MPC 54558
P/2004 DO29 (Spacewatch-LINEAR),e,14.5320,147.3739,40.5588,7.292099,0.0500524,0.44114936,323.3085,06/02.0/2022,2000,g 13.5,2.0
# From MPC 54823
P/2004 FY140 (LINEAR),e,2.1348,326.7731,242.2077,4.905822,0.0907061,0.16789688,227.6838,06/02.0/2022,2000,g 12.5,2.0
# From MPC 53304
P/2004 R3 (LINEAR-NEAT),e,12.7821,305.3512,37.7597,4.769232,0.0946305,0.25637047,24.0130,06/02.0/2022,2000,g 14.5,4.0
# From MPC 55521
P/2004 V3 (Siding Spring),e,50.4438,356.1303,322.4484,7.133309,0.0517330,0.44610061,332.1261,06/02.0/2022,2000,g 11.5,4.0
# From MPC 75705
P/2004 V5 (LINEAR-Hill),e,19.3409,47.7882,87.6011,7.986246,0.0436707,0.44427467,277.0042,06/02.0/2022,2000,g  8.0,4.0
# From MPC 54164
P/2005 E1 (Tubbiolo),e,4.2635,335.5721,193.9354,7.047008,0.0526862,0.37536572,334.5151,06/02.0/2022,2000,g 10.0,4.0
# From MPC 54823
P/2005 GF8 (LONEOS),e,1.1796,314.2617,284.5919,5.789941,0.0707445,0.51676655,69.3553,06/02.0/2022,2000,g 11.5,4.0
# From MPC 79019
P/2005 J1 (McNaught),e,31.7460,268.8250,338.9450,3.571438,0.1460291,0.56917023,194.0991,06/02.0/2022,2000,g 16.5,4.0
# From MPC 74246
P/2005 L1 (McNaught),e,7.7364,138.2485,149.8437,3.983181,0.1239821,0.21098291,26.1117,06/02.0/2022,2000,g  9.5,4.0
# From MPC 75706
P/2005 S2 (Skiff),e,3.1356,161.2228,229.3132,8.008472,0.0434890,0.19826948,254.7662,06/02.0/2022,2000,g  7.5,4.0
# From MPC 75706
P/2005 SB216 (LONEOS),e,24.1080,1.1345,83.2744,7.141796,0.0516408,0.46435021,291.6168,06/02.0/2022,2000,g 12.0,2.0
# From MPC 73461
P/2005 T3 (Read),e,6.2236,27.6834,6.6710,7.587611,0.0471570,0.17514734,287.6193,06/02.0/2022,2000,g  9.0,4.0
# From MPC 73461
P/2005 T4 (SWAN),e,160.2560,25.8804,41.7922,9.360210,0.0344172,0.92971312,209.3727,06/02.0/2022,2000,g 15.0,4.0
# From MPC 75706
P/2005 T5 (Broughton),e,21.3744,56.9996,304.6537,7.283772,0.0501383,0.55263661,304.4398,06/02.0/2022,2000,g 11.0,4.0
# From MPC 75706
P/2005 Y2 (McNaught),e,19.0471,94.1968,193.7236,6.345552,0.0616595,0.46841290,36.5334,06/02.0/2022,2000,g  9.0,4.0
# From MPC 56954
P/2006 F4 (Spacewatch),e,12.4508,183.8324,30.6333,3.513427,0.1496607,0.34229426,154.7373,06/02.0/2022,2000,g 15.0,4.0
# From MPC 75707
P/2006 HR30 (Siding Spring),e,31.8472,309.8617,117.3400,7.809881,0.0451583,0.84287456,255.1521,06/02.0/2022,2000,g 11.0,4.0
# From MPC 75707
P/2007 A2 (Christensen),e,26.4868,300.9119,186.7049,6.334339,0.0618233,0.55818541,348.8674,06/02.0/2022,2000,g 13.5,4.0
# From MPC 75707
P/2007 C2 (Catalina),e,8.6118,275.3461,180.1530,6.996462,0.0532582,0.47180783,285.9271,06/02.0/2022,2000,g 10.0,4.0
# From MPC 84315
C/2007 D1 (LINEAR),e,41.5015,171.2361,339.8581,1237,0.0000227,0.99288479,0.0000,06/07.1367/2007,2000,g  3.5,4.0
# From MPC 82314
P/2007 K2 (Gibbs),e,7.6278,188.6351,347.3760,7.272397,0.0502560,0.68297929,275.9367,06/02.0/2022,2000,g 14.0,4.0
# From MPC 60925
P/2007 Q2 (Gilmore),e,10.2027,172.1531,162.8287,5.655877,0.0732747,0.67009844,40.4480,06/02.0/2022,2000,g 16.0,4.0
# From MPC 73462
P/2007 S1 (Zhao),e,5.9623,141.3658,245.2552,3.823536,0.1318276,0.33973557,343.2499,06/02.0/2022,2000,g 13.0,4.0
# From MPC 61994
P/2007 T2 (Kowalski),e,9.7522,3.3776,359.6546,3.046104,0.1853903,0.78564145,261.0798,06/02.0/2022,2000,g 18.5,4.0
# From MPC 75709
P/2008 L2 (Hill),e,25.8679,218.0169,141.2544,6.027528,0.0666032,0.61340347,337.1515,06/02.0/2022,2000,g 12.5,4.0
# From MPC 64114
P/2008 O3 (Boattini),e,32.3167,47.5686,341.1457,8.217092,0.0418434,0.69617174,214.0802,06/02.0/2022,2000,g 13.0,4.0
# From MPC 75710
P/2008 Y3 (McNaught),e,38.7756,262.8392,238.0841,8.047864,0.0431701,0.44563498,212.2087,06/02.0/2022,2000,g  8.5,4.0
# From MPC 75710
P/2009 B1 (Boattini),e,22.2296,297.0796,128.8847,6.737600,0.0563568,0.63539087,276.0240,06/02.0/2022,2000,g 13.0,4.0
# From MPC 66466
C/2009 G1 (STEREO),e,108.5978,120.5132,175.4884,458.9559,0.0001002,0.99751756,0.0000,04/17.6669/2009,2000,g  9.0,4.0
# From MPC 75710
P/2009 O3 (Hill),e,16.2871,183.6866,154.4752,7.767289,0.0455302,0.68787044,216.4223,06/02.0/2022,2000,g 12.5,4.0
# From MPC 68902
P/2009 Q5 (McNaught),e,40.9887,160.2801,209.0775,7.431544,0.0486503,0.60968840,226.0580,06/02.0/2022,2000,g 10.0,4.0
# From MPC112389
P/2009 T2 (La Sagra),e,27.5960,215.8800,216.3334,7.720174,0.0459477,0.76611635,208.5166,06/02.0/2022,2000,g 14.0,4.0
# From MPC105235
P/2009 WX51 (Catalina),e,9.5939,31.5851,118.2424,3.082735,0.1820957,0.73961670,102.5075,06/02.0/2022,2000,g 19.0,2.0
# From MPC 74247
P/2009 Y2 (Kowalski),e,29.9528,262.0358,172.1293,6.550207,0.0587925,0.63654268,263.3016,06/02.0/2022,2000,g 13.0,4.0
# From MPC 75711
P/2010 A3 (Hill),e,14.8180,63.6719,42.2608,6.084379,0.0656719,0.73364802,293.4065,06/02.0/2022,2000,g 14.0,4.0
# From MPC 75008
P/2010 C1 (Scotti),e,9.1273,141.8818,3.4630,7.104265,0.0520505,0.25984592,239.0768,06/02.0/2022,2000,g  9.5,4.0
# From MPC 75008
P/2010 D2 (WISE),e,57.0924,319.8863,119.9539,6.720137,0.0565766,0.45130293,254.5208,06/02.0/2022,2000,g 16.0,4.0
# From MPC 75009
P/2010 E2 (Jarnac),e,15.3853,177.8201,8.3231,8.640208,0.0388077,0.71946663,172.7210,06/02.0/2022,2000,g 14.0,4.0
# From MPC 72851
P/2010 H2 (Vales),e,14.2777,64.1877,128.0281,3.832451,0.1313679,0.19638623,226.9977,06/02.0/2022,2000,g  6.0,4.0
# From MPC 70361
P/2010 H3 (SOHO),e,23.0651,77.0857,26.1583,3.036528,0.1862680,0.98535526,0.0000,02/07.8949/2021,2000,g 20.0,2.0
# From MPC 73463
P/2010 H4 (Scotti),e,2.3178,44.7282,179.3976,6.597548,0.0581608,0.26637145,254.4302,06/02.0/2022,2000,g 10.5,4.0
# From MPC 74637
P/2010 H5 (Scotti),e,14.0580,24.7956,174.8825,7.168549,0.0513520,0.15259034,228.7176,06/02.0/2022,2000,g 13.0,2.0
# From MPC 98558
P/2010 J3 (McMillan),e,13.2725,106.4510,157.5921,8.978277,0.0366366,0.72596608,157.4264,06/02.0/2022,2000,g 11.0,4.0
# From MPC 84315
P/2010 JC81 (WISE),e,38.8071,30.8637,12.4233,8.106811,0.0427001,0.77767480,173.2695,06/02.0/2022,2000,g  9.0,4.0
# From MPC 74248
P/2010 T2 (PANSTARRS),e,7.8866,58.6289,352.8528,5.557880,0.0752212,0.32265770,310.7508,06/02.0/2022,2000,g 11.5,4.0
# From MPC 98558
P/2010 TO20 (LINEAR-Grauer),e,2.4788,43.2867,267.2835,5.832828,0.0699657,0.05559034,347.6375,06/02.0/2022,2000,g  9.0,4.0
# From MPC 82316
P/2010 U1 (Boattini),e,8.2184,280.6875,86.1609,6.504144,0.0594181,0.24902147,267.5271,06/02.0/2022,2000,g  9.5,4.0
# From MPEC 2022-K19
C/2010 U3 (Boattini),e,55.5475,43.0003,88.0439,2359,0.0000086,0.99642121,0.0000,02/25.2418/2019,2000,g  1.0,4.0
# From MPC 79021
P/2010 UH55 (Spacewatch),e,8.0386,232.9114,225.1470,6.654587,0.0574146,0.56353555,233.9917,06/02.0/2022,2000,g 11.0,4.0
# From MPC 75009
P/2010 WK (LINEAR),e,11.4016,11.3341,40.9689,5.762428,0.0712518,0.69036758,304.3875,06/02.0/2022,2000,g 14.5,2.0
# From MPC 84021
P/2011 C2 (Gibbs),e,10.8866,12.1211,160.6274,7.412747,0.0488355,0.26902336,186.3364,06/02.0/2022,2000,g  9.0,4.0
# From MPC 79866
P/2011 FR143 (Lemmon),e,15.9759,190.9493,349.9836,6.862253,0.0548282,0.45052102,225.8417,06/02.0/2022,2000,g 14.0,2.0
# From MPC 82317
P/2011 JB15 (Spacewatch-Boattini),e,19.1475,153.5817,111.0720,7.363462,0.0493266,0.31645969,186.7811,06/02.0/2022,2000,g  9.0,4.0
# From MPC 87913
P/2011 N1 (ASH),e,35.7538,77.5813,330.3648,6.246033,0.0631390,0.54476431,231.3226,06/02.0/2022,2000,g 11.5,4.0
# From MPC 75714
P/2011 NO1 (Elenin),e,15.2453,295.8226,263.7258,5.529503,0.0758010,0.77454250,315.0434,06/02.0/2022,2000,g 15.0,4.0
# From MPEC 2022-ED3
P/2011 P1 (McNaught),e,5.6611,4.2316,349.0953,7.460372,0.0483686,0.32761859,209.2034,06/02.0/2022,2000,g  9.0,4.0
# From MPEC 2022-HC2
P/2011 S1 (Gibbs),e,2.6866,218.8408,192.4476,8.582977,0.0391965,0.20126574,111.7008,06/02.0/2022,2000,g  8.0,4.0
# From MPC 79022
P/2011 UA134 (Spacewatch-PANSTARRS),e,10.4405,40.4001,32.4007,5.609139,0.0741925,0.62962533,286.4583,06/02.0/2022,2000,g 17.5,4.0
# From MPC 77406
P/2011 V1 (Boattini),e,7.3749,46.7947,269.3599,3.856669,0.1301324,0.55030497,174.1970,06/02.0/2022,2000,g 15.5,4.0
# From MPC 82718
P/2011 W1 (PANSTARRS),e,3.7186,161.7850,282.7583,4.664353,0.0978401,0.28778686,11.1779,06/02.0/2022,2000,g 11.5,4.0
# From MPC 79342
